[{"OBJECT_NAME":"ONEWEB-0512","OBJECT_ID":"2022-138T","EPOCH":"2026-03-09T18:15:39.066048","MEAN_MOTION":13.19724179,"ECCENTRICITY":0.00015266,"INCLINATION":87.9228,"RA_OF_ASC_NODE":324.7851,"ARG_OF_PERICENTER":92.0773,"MEAN_ANOMALY":268.0534,"EPHEMERIS_TYPE":0,"CLASSIFICATION_TYPE":"U","NORAD_CAT_ID":54130,"ELEMENT_SET_NO":999,"REV_AT_EPOCH":16369,"BSTAR":2.291254e-6,"MEAN_MOTION_DOT":1.4e-7,"MEAN_MOTION_DDOT":0},{"OBJECT_NAME":"CZ-4 DEB","OBJECT_ID":"1990-081AA","EPOCH":"2026-03-09T15:02:51.533376","MEAN_MOTION":13.62024845,"ECCENTRICITY":0.0231608,"INCLINATION":98.9337,"RA_OF_ASC_NODE":269.7228,"ARG_OF_PERICENTER":100.3745,"MEAN_ANOMALY":306.18,"EPHEMERIS_TYPE":0,"CLASSIFICATION_TYPE":"U","NORAD_CAT_ID":20862,"ELEMENT_SET_NO":999,"REV_AT_EPOCH":75963,"BSTAR":0.00036822,"MEAN_MOTION_DOT":3.02e-6,"MEAN_MOTION_DDOT":0}]
